GLOBALSTAR M094         
1 39074U 13005C   23353.44041175 -.00000088  00000+0  90430-4 0  9990
2 39074  51.9978  43.7544 0000638 137.2322 222.8594 12.62270384503452
GLOBALSTAR M096         
1 39075U 13005D   23353.45375077 -.00000090  00000+0  75681-4 0  9997
2 39075  52.0079  91.8019 0001056 124.7589 235.3377 12.62266985502379
GLOBALSTAR M078         
1 39076U 13005E   23352.71456338 -.00000108  00000+0 -26105-4 0  9994
2 39076  51.9843 179.3052 0001870  70.3619 289.7450 12.62264746500905
GLOBALSTAR M095         
1 39077U 13005F   23352.82007572 -.00000098  00000+0  33140-4 0  9993
2 39077  51.9770 176.4517 0001829  87.2807 272.8269 12.62272121500771
GLOBALSTAR M087         
1 52888U 22064A   23353.50277829 -.00000096  00000+0  60693-4 0  9994
2 52888  51.9752 118.4103 0008630 263.8234  96.1684 13.37560425 73342
